[{"OBJECT_NAME":"STARLINK-5469","OBJECT_ID":"2023-021X","EPOCH":"2026-03-09T18:09:20.580480","MEAN_MOTION":14.98331595,"ECCENTRICITY":0.0003345,"INCLINATION":70.0017,"RA_OF_ASC_NODE":184.1969,"ARG_OF_PERICENTER":270.4714,"MEAN_ANOMALY":89.6062,"EPHEMERIS_TYPE":0,"CLASSIFICATION_TYPE":"U","NORAD_CAT_ID":55649,"ELEMENT_SET_NO":999,"REV_AT_EPOCH":16880,"BSTAR":1.2115723e-5,"MEAN_MOTION_DOT":5.2e-7,"MEAN_MOTION_DDOT":0},{"OBJECT_NAME":"RAPIDEYE 5","OBJECT_ID":"2008-040B","EPOCH":"2026-03-09T15:17:22.403904","MEAN_MOTION":15.02179038,"ECCENTRICITY":0.0014834,"INCLINATION":97.3944,"RA_OF_ASC_NODE":91.3825,"ARG_OF_PERICENTER":86.9831,"MEAN_ANOMALY":273.3091,"EPHEMERIS_TYPE":0,"CLASSIFICATION_TYPE":"U","NORAD_CAT_ID":33313,"ELEMENT_SET_NO":999,"REV_AT_EPOCH":95055,"BSTAR":0.00014028,"MEAN_MOTION_DOT":1.794e-5,"MEAN_MOTION_DDOT":0}]
